{
  "type": "FeatureCollection",
  "features": [
    {
      "type": "Feature",
      "properties": {
        "norad_id": 67081,
        "name": "STARLINK-35864",
        "group": "last-30-days",
        "lat": -16.511028896789075,
        "lon": 50.82345027381479,
        "alt_km": 308.5366606870066,
        "timestamp": "2025-12-21T16:47:53.453137+00:00",
        "meta_object_name": "STARLINK-35864",
        "meta_object_id": "2025-298G",
        "meta_epoch": "2025-12-21T12:00:02.000160",
        "meta_mean_motion": 15.88990889,
        "meta_eccentricity": 0.0004422,
        "meta_inclination": 69.9983,
        "meta_ra_of_asc_node": 225.2024,
        "meta_arg_of_pericenter": 265.8414,
        "meta_mean_anomaly": 228.5577,
        "meta_ephemeris_type": 0,
        "meta_classification_type": "U",
        "meta_norad_cat_id": 67081,
        "meta_element_set_no": 999,
        "meta_rev_at_epoch": 238,
        "meta_bstar": -0.00049639,
        "meta_mean_motion_dot": -0.0013995,
        "meta_mean_motion_ddot": 0,
        "tle_line1": "1 67081U 25298G   25355.50002315 -.00139950  00000+0 -49639-3 0  9996",
        "tle_line2": "2 67081  69.9983 225.2024 0004422 265.8414 228.5577 15.88990889  2381"
      },
      "geometry": {
        "type": "Point",
        "coordinates": [
          50.82345027381479,
          -16.511028896789075
        ]
      }
    },
    {
      "type": "Feature",
      "properties": {
        "norad_id": 67082,
        "name": "STARLINK-36035",
        "group": "last-30-days",
        "lat": -18.228287249519465,
        "lon": 51.512777560493085,
        "alt_km": 308.51726093890557,
        "timestamp": "2025-12-21T16:47:53.453149+00:00",
        "meta_object_name": "STARLINK-36035",
        "meta_object_id": "2025-298H",
        "meta_epoch": "2025-12-21T12:00:02.000160",
        "meta_mean_motion": 15.89039813,
        "meta_eccentricity": 0.0004376,
        "meta_inclination": 69.9982,
        "meta_ra_of_asc_node": 225.2004,
        "meta_arg_of_pericenter": 266.4634,
        "meta_mean_anomaly": 229.7409,
        "meta_ephemeris_type": 0,
        "meta_classification_type": "U",
        "meta_norad_cat_id": 67082,
        "meta_element_set_no": 999,
        "meta_rev_at_epoch": 238,
        "meta_bstar": -0.00051302,
        "meta_mean_motion_dot": -0.00148137,
        "meta_mean_motion_ddot": 1.1022e-05,
        "tle_line1": "1 67082U 25298H   25355.50002315 -.00148137  11022-4 -51302-3 0  9995",
        "tle_line2": "2 67082  69.9982 225.2004 0004376 266.4634 229.7409 15.89039813  2387"
      },
      "geometry": {
        "type": "Point",
        "coordinates": [
          51.512777560493085,
          -18.228287249519465
        ]
      }
    },
    {
      "type": "Feature",
      "properties": {
        "norad_id": 67083,
        "name": "STARLINK-36170",
        "group": "last-30-days",
        "lat": -20.01925011503313,
        "lon": 52.24724253357745,
        "alt_km": 308.39357848885174,
        "timestamp": "2025-12-21T16:47:53.453161+00:00",
        "meta_object_name": "STARLINK-36170",
        "meta_object_id": "2025-298J",
        "meta_epoch": "2025-12-21T12:00:02.000160",
        "meta_mean_motion": 15.89095913,
        "meta_eccentricity": 0.0004425,
        "meta_inclination": 69.998,
        "meta_ra_of_asc_node": 225.198,
        "meta_arg_of_pericenter": 266.0093,
        "meta_mean_anomaly": 232.077,
        "meta_ephemeris_type": 0,
        "meta_classification_type": "U",
        "meta_norad_cat_id": 67083,
        "meta_element_set_no": 999,
        "meta_rev_at_epoch": 238,
        "meta_bstar": -0.00051388,
        "meta_mean_motion_dot": -0.00148797,
        "meta_mean_motion_ddot": 1.1091e-05,
        "tle_line1": "1 67083U 25298J   25355.50002315 -.00148797  11091-4 -51388-3 0  9998",
        "tle_line2": "2 67083  69.9980 225.1980 0004425 266.0093 232.0770 15.89095913  2389"
      },
      "geometry": {
        "type": "Point",
        "coordinates": [
          52.24724253357745,
          -20.01925011503313
        ]
      }
    },
    {
      "type": "Feature",
      "properties": {
        "norad_id": 67084,
        "name": "STARLINK-36166",
        "group": "last-30-days",
        "lat": -21.68969725086166,
        "lon": 52.94864757052756,
        "alt_km": 308.37606849246004,
        "timestamp": "2025-12-21T16:47:53.453171+00:00",
        "meta_object_name": "STARLINK-36166",
        "meta_object_id": "2025-298K",
        "meta_epoch": "2025-12-21T12:00:02.000160",
        "meta_mean_motion": 15.89149339,
        "meta_eccentricity": 0.0004375,
        "meta_inclination": 69.9979,
        "meta_ra_of_asc_node": 225.1957,
        "meta_arg_of_pericenter": 267.2162,
        "meta_mean_anomaly": 232.6279,
        "meta_ephemeris_type": 0,
        "meta_classification_type": "U",
        "meta_norad_cat_id": 67084,
        "meta_element_set_no": 999,
        "meta_rev_at_epoch": 232,
        "meta_bstar": -0.00052688,
        "meta_mean_motion_dot": -0.00152932,
        "meta_mean_motion_ddot": 1.1499e-05,
        "tle_line1": "1 67084U 25298K   25355.50002315 -.00152932  11499-4 -52688-3 0  9991",
        "tle_line2": "2 67084  69.9979 225.1957 0004375 267.2162 232.6279 15.89149339  2322"
      },
      "geometry": {
        "type": "Point",
        "coordinates": [
          52.94864757052756,
          -21.68969725086166
        ]
      }
    },
    {
      "type": "Feature",
      "properties": {
        "norad_id": 67085,
        "name": "STARLINK-35794",
        "group": "last-30-days",
        "lat": -23.325611731721743,
        "lon": 53.65289056103509,
        "alt_km": 308.23643415438164,
        "timestamp": "2025-12-21T16:47:53.453181+00:00",
        "meta_object_name": "STARLINK-35794",
        "meta_object_id": "2025-298L",
        "meta_epoch": "2025-12-21T12:00:02.000160",
        "meta_mean_motion": 15.89199621,
        "meta_eccentricity": 0.0004484,
        "meta_inclination": 69.998,
        "meta_ra_of_asc_node": 225.1936,
        "meta_arg_of_pericenter": 266.7051,
        "meta_mean_anomaly": 234.8666,
        "meta_ephemeris_type": 0,
        "meta_classification_type": "U",
        "meta_norad_cat_id": 67085,
        "meta_element_set_no": 999,
        "meta_rev_at_epoch": 238,
        "meta_bstar": -0.00055137,
        "meta_mean_motion_dot": -0.00160389,
        "meta_mean_motion_ddot": 1.2258e-05,
        "tle_line1": "1 67085U 25298L   25355.50002315 -.00160389  12258-4 -55137-3 0  9993",
        "tle_line2": "2 67085  69.9980 225.1936 0004484 266.7051 234.8666 15.89199621  2383"
      },
      "geometry": {
        "type": "Point",
        "coordinates": [
          53.65289056103509,
          -23.325611731721743
        ]
      }
    },
    {
      "type": "Feature",
      "properties": {
        "norad_id": 67086,
        "name": "STARLINK-35841",
        "group": "last-30-days",
        "lat": -25.215927098433582,
        "lon": 54.49084876684641,
        "alt_km": 308.1232937910336,
        "timestamp": "2025-12-21T16:47:53.453191+00:00",
        "meta_object_name": "STARLINK-35841",
        "meta_object_id": "2025-298M",
        "meta_epoch": "2025-12-21T12:00:02.000160",
        "meta_mean_motion": 15.89253235,
        "meta_eccentricity": 0.0004341,
        "meta_inclination": 69.9979,
        "meta_ra_of_asc_node": 225.1914,
        "meta_arg_of_pericenter": 265.329,
        "meta_mean_anomaly": 238.242,
        "meta_ephemeris_type": 0,
        "meta_classification_type": "U",
        "meta_norad_cat_id": 67086,
        "meta_element_set_no": 999,
        "meta_rev_at_epoch": 238,
        "meta_bstar": -0.00054072,
        "meta_mean_motion_dot": -0.00157726,
        "meta_mean_motion_ddot": 1.199e-05,
        "tle_line1": "1 67086U 25298M   25355.50002315 -.00157726  11990-4 -54072-3 0  9994",
        "tle_line2": "2 67086  69.9979 225.1914 0004341 265.3290 238.2420 15.89253235  2388"
      },
      "geometry": {
        "type": "Point",
        "coordinates": [
          54.49084876684641,
          -25.215927098433582
        ]
      }
    },
    {
      "type": "Feature",
      "properties": {
        "norad_id": 67087,
        "name": "STARLINK-35842",
        "group": "last-30-days",
        "lat": -26.657854815523685,
        "lon": 55.148838051192115,
        "alt_km": 308.02693575283047,
        "timestamp": "2025-12-21T16:47:53.453200+00:00",
        "meta_object_name": "STARLINK-35842",
        "meta_object_id": "2025-298N",
        "meta_epoch": "2025-12-21T12:00:02.000160",
        "meta_mean_motion": 15.89303516,
        "meta_eccentricity": 0.0004365,
        "meta_inclination": 69.9979,
        "meta_ra_of_asc_node": 225.1894,
        "meta_arg_of_pericenter": 265.5661,
        "meta_mean_anomaly": 239.5297,
        "meta_ephemeris_type": 0,
        "meta_classification_type": "U",
        "meta_norad_cat_id": 67087,
        "meta_element_set_no": 999,
        "meta_rev_at_epoch": 238,
        "meta_bstar": -0.00055658,
        "meta_mean_motion_dot": -0.00162722,
        "meta_mean_motion_ddot": 1.2512e-05,
        "tle_line1": "1 67087U 25298N   25355.50002315 -.00162722  12512-4 -55658-3 0  9999",
        "tle_line2": "2 67087  69.9979 225.1894 0004365 265.5661 239.5297 15.89303516  2380"
      },
      "geometry": {
        "type": "Point",
        "coordinates": [
          55.148838051192115,
          -26.657854815523685
        ]
      }
    }
  ]
}